[{"OBJECT_NAME":"STARLINK-34836","OBJECT_ID":"2025-191W","EPOCH":"2026-03-09T15:37:19.177824","MEAN_MOTION":15.05645449,"ECCENTRICITY":0.0002985,"INCLINATION":97.6027,"RA_OF_ASC_NODE":301.4895,"ARG_OF_PERICENTER":66.6441,"MEAN_ANOMALY":293.5099,"EPHEMERIS_TYPE":0,"CLASSIFICATION_TYPE":"U","NORAD_CAT_ID":65399,"ELEMENT_SET_NO":999,"REV_AT_EPOCH":3026,"BSTAR":0.00093942,"MEAN_MOTION_DOT":0.00013519,"MEAN_MOTION_DDOT":0},{"OBJECT_NAME":"PEGASUS DEB","OBJECT_ID":"1994-029CY","EPOCH":"2026-03-09T05:13:06.117888","MEAN_MOTION":14.31816092,"ECCENTRICITY":0.03405003,"INCLINATION":81.2891,"RA_OF_ASC_NODE":137.9762,"ARG_OF_PERICENTER":84.6876,"MEAN_ANOMALY":331.5571,"EPHEMERIS_TYPE":0,"CLASSIFICATION_TYPE":"U","NORAD_CAT_ID":24051,"ELEMENT_SET_NO":999,"REV_AT_EPOCH":50238,"BSTAR":0.0015079585,"MEAN_MOTION_DOT":7.708e-5,"MEAN_MOTION_DDOT":0}]
